[Satellite]
VERSION=1.1
NAME=AIM
NICKNAME=AIM
TLE1=1 31304U 07015A   18020.71297842  .00000735  00000-0  46291-4 0  9996
TLE2=2 31304  97.9995 215.0737 0006434 110.6924 249.4996 15.12525529587815
